IRIDIUM 119             
1 42959U 17061E   24191.11577539  .00000408  00000+0  13857-3 0  9997
2 42959  86.3985 321.1484 0002258 101.6154 258.5295 14.34219608353328
IRIDIUM 107             
1 42960U 17061F   24191.06503131  .00000133  00000+0  40348-4 0  9991
2 42960  86.3986 321.1865 0002393  97.4997 262.6471 14.34217189353336
IRIDIUM 132             
1 42961U 17061G   24191.07137383  .00000246  00000+0  80682-4 0  9995
2 42961  86.3985 321.1683 0002512  94.9125 265.2357 14.34218118353326
IRIDIUM 136             
1 42962U 17061H   24191.10308717  .00000403  00000+0  13687-3 0  9996
2 42962  86.3986 321.1586 0002131 102.5380 257.6054 14.34220049353343
IRIDIUM 139             
1 42963U 17061J   24190.90011970  .00000408  00000+0  13853-3 0  9996
2 42963  86.3988 321.2938 0002559  97.4444 262.7043 14.34221273353328
IRIDIUM 125             
1 42964U 17061K   24190.88743857  .00000218  00000+0  70944-4 0  9994
2 42964  86.3989 321.3472 0002351 106.4844 253.6610 14.34218591353338
IRIDIUM 135             
1 43070U 17083A   24190.93133598  .00000373  00000+0  12607-3 0  9991
2 43070  86.3956 257.9784 0002232  85.7896 274.3555 14.34219444342632
IRIDIUM 138             
1 43071U 17083B   24190.88693423  .00000036  00000+0  58144-5 0  9998
2 43071  86.3945 257.7116 0002244 103.6881 256.4565 14.34216385342616
